[{"OBJECT_NAME":"TIANMU-1 09","OBJECT_ID":"2023-101C","EPOCH":"2026-03-09T22:17:34.703232","MEAN_MOTION":15.29080822,"ECCENTRICITY":0.00049013,"INCLINATION":97.267,"RA_OF_ASC_NODE":121.1263,"ARG_OF_PERICENTER":139.4293,"MEAN_ANOMALY":220.7314,"EPHEMERIS_TYPE":0,"CLASSIFICATION_TYPE":"U","NORAD_CAT_ID":57401,"ELEMENT_SET_NO":999,"REV_AT_EPOCH":14647,"BSTAR":0.00030540035,"MEAN_MOTION_DOT":8.553e-5,"MEAN_MOTION_DDOT":0},{"OBJECT_NAME":"STARLINK-30982","OBJECT_ID":"2023-191E","EPOCH":"2026-03-09T11:18:26.892576","MEAN_MOTION":15.2749096,"ECCENTRICITY":0.00010719,"INCLINATION":42.9984,"RA_OF_ASC_NODE":105.0294,"ARG_OF_PERICENTER":306.8199,"MEAN_ANOMALY":53.2554,"EPHEMERIS_TYPE":0,"CLASSIFICATION_TYPE":"U","NORAD_CAT_ID":58512,"ELEMENT_SET_NO":999,"REV_AT_EPOCH":12543,"BSTAR":0.00068716051,"MEAN_MOTION_DOT":0.00018644,"MEAN_MOTION_DDOT":0}]
